OBJECT_NAME,OBJECT_ID,EPOCH,MEAN_MOTION,ECCENTRICITY,INCLINATION,RA_OF_ASC_NODE,ARG_OF_PERICENTER,MEAN_ANOMALY,EPHEMERIS_TYPE,CLASSIFICATION_TYPE,NORAD_CAT_ID,ELEMENT_SET_NO,REV_AT_EPOCH,BSTAR,MEAN_MOTION_DOT,MEAN_MOTION_DDOT
CUBEBUG-2 (LO-74),2013-066AA,2026-06-03T07:55:56.668800,14.93641817,.00594532,97.8904,103.2522,73.9566,286.8190,0,U,39440,999,67492,.47122985E-3,.5093E-4,0
FUNCUBE-1 (AO-73),2013-066AE,2026-06-03T17:33:37.044000,15.09317269,.00346977,97.8276,125.8984,248.4796,111.2732,0,U,39444,999,67763,.51138585E-3,.8204E-4,0
UWE-3,2013-066AG,2026-06-04T02:44:55.111200,14.96917145,.00493925,97.8703,111.1024,5.4277,354.7469,0,U,39446,999,67562,.38663104E-3,.4488E-4,0
UNISAT-6,2014-033C,2026-06-03T16:27:54.809856,14.88166007,.0046407,97.7869,307.6374,112.5348,248.0791,0,U,40012,999,64415,.38451616E-3,.3559E-4,0
DUCHIFAT-1,2014-033M,2026-06-02T16:22:25.685472,15.61688703,.00050954,98.0473,210.8393,141.7306,218.4313,0,U,40021,999,65348,.11397187E-2,.99172E-3,0
QB50P1,2014-033R,2026-06-03T13:44:21.385536,15.18040602,.00070591,98.0967,164.7661,272.3380,87.7044,0,U,40025,999,65096,.48089613E-3,.9724E-4,0
LILACSAT-2,2015-049K,2026-06-04T07:21:07.718976,15.51001043,.00053811,97.4655,191.6615,307.9297,52.1468,0,U,40908,999,59375,.32650105E-3,.18886E-3,0
FOX-1A (AO-85),2015-058D,2026-06-04T01:42:57.366720,14.90899033,.01297684,64.7763,319.7410,61.7322,299.6816,0,U,40967,999,11161,.29843632E-3,.329E-4,0
CAS-2T & KS-1Q,2016-066G,2026-06-04T01:56:15.516960,14.44649631,.03422707,98.3817,230.9662,169.1491,191.7333,0,U,41847,999,50290,.2801007E-3,.1943E-4,0
RADFXSAT (FOX-1B),2017-073E,2026-06-04T02:38:21.071040,15.12483096,.01515598,97.4712,22.5937,14.4764,346.0735,0,U,43017,999,46341,.49586909E-3,.11376E-3,0
DIWATA-2B,2018-084H,2026-06-04T07:10:22.507104,15.00386009,.00117979,98.1153,350.9488,213.2790,146.7692,0,U,43678,999,41428,.16165892E-3,.1967E-4,0
ES'HAIL 2,2018-090A,2026-06-04T03:25:05.191680,1.00272521,.00019665,0.0174,355.2878,110.3925,223.9724,0,U,43700,999,2754,0,.156E-5,0
FOX-1CLIFF (AO-95),2018-099N,2026-06-03T15:21:57.123072,15.26406805,.0009397,97.4392,214.9391,44.7441,315.4554,0,U,43770,999,41115,.50433E-3,.1308E-3,0
ITASAT,2018-099AE,2026-06-04T02:38:24.186624,15.18882675,.00134601,97.4030,206.8836,44.7670,315.4648,0,U,43786,999,41092,.38125955E-3,.7904E-4,0
JY1SAT (JO-97),2018-099AX,2026-06-04T02:38:27.913920,15.33220920,.00043048,97.4133,217.9030,327.2948,32.8027,0,U,43803,999,41162,.60140727E-3,.19257E-3,0
UWE-4,2018-111E,2026-06-03T08:40:07.131360,15.45215882,.00082433,97.5860,82.1246,33.3192,326.8573,0,U,43880,999,40864,.73362008E-3,.349E-3,0
TIANYAN 01,2019-093C,2026-06-04T06:07:34.283424,14.86497093,.00146786,97.7535,227.8023,125.4104,234.8485,0,U,44881,999,34949,.81098368E-4,.665E-5,0
RS-44 & BREEZE-KM R/B,2019-096E,2026-06-04T00:38:56.351040,12.79748573,.02175907,82.5219,348.4520,174.8762,185.4640,0,U,44909,999,30066,-.44332679E-4,.1E-7,0
SALSAT,2020-068K,2026-06-03T23:56:12.056928,15.29597840,.00093644,97.8850,157.2614,359.9507,0.1729,0,U,46495,999,31334,.30076162E-3,.8555E-4,0
XW-3 (CAS-9),2021-131B,2026-06-04T06:45:15.286752,14.41345466,.00050403,98.4979,247.7411,126.5293,233.6360,0,U,50466,999,23325,.21804077E-3,.662E-5,0
GREENCUBE (IO-117),2022-080E,2026-06-01T11:09:37.753056,6.42583280,.00088692,70.1435,303.7143,293.3663,66.6064,0,U,53109,999,9105,0,-.3E-7,0
UMKA 1 (RS40S),2023-091G,2026-06-04T04:44:01.226688,15.20660736,.00134756,97.5051,213.9455,158.8466,201.3330,0,U,57172,999,16203,.32160955E-3,.7009E-4,0
CUBESX-HSE 3 (RS42S),2023-091N,2026-06-04T05:35:49.761312,15.30872052,.00120446,97.5093,220.6597,134.7257,225.4967,0,U,57178,999,16244,.51751371E-3,.15408E-3,0
MONITOR-3 (RS58S),2023-091Q,2026-06-04T03:56:00.938400,15.27565922,.00128634,97.5085,218.5166,141.1958,219.0208,0,U,57180,999,16230,.44640986E-3,.11994E-3,0
MONITOR-4 (RS57S),2023-091S,2026-06-04T03:26:58.295328,15.27663555,.00128048,97.5078,218.4669,141.6583,218.5569,0,U,57182,999,16230,.46321053E-3,.12486E-3,0
MONITOR-2 (RS39S),2023-091U,2026-06-04T04:51:20.171520,15.18783513,.00120658,97.5075,213.5700,151.3600,208.8300,0,U,57184,999,16198,.27231313E-3,.5604E-4,0
SVYATOBOR 1 (RS60S),2023-091X,2026-06-04T05:04:17.058720,15.26383361,.00107125,97.5090,218.9584,133.6184,226.5944,0,U,57187,999,16233,.39089466E-3,.10113E-3,0
VIZARD-METEO (RS38S),2023-091Z,2026-06-04T02:48:12.601728,15.35589021,.0008752,97.5093,224.3441,116.2926,243.9218,0,U,57189,999,16268,.54135836E-3,.18692E-3,0
POLYTECH-UNIVERSE 3 (RS46S),2023-091AB,2026-06-04T05:32:58.161408,15.18984272,.00159396,97.5050,213.1033,168.9055,191.2533,0,U,57191,999,16198,.30837175E-3,.6402E-4,0
UTMN 2 (RS27S),2023-091AP,2026-06-04T06:11:24.288000,15.31719246,.00094494,97.5089,222.3028,121.9833,238.2328,0,U,57203,999,16256,.47960559E-3,.14641E-3,0
